STARLINK-2022           
1 47643U 21012Z   24064.82771232  .00001534  00000+0  12184-3 0  9999
2 47643  53.0535 110.5433 0001440  91.6135 268.5019 15.06397075168984
